IRIDIUM 136             
1 42962U 17061H   24037.05419407  .00000449  00000+0  15315-3 0  9998
2 42962  86.3969  25.5227 0002210  81.1875 278.9571 14.34217212331265
